GALAXY 19 (G-19)        
1 33376U 08045A   26063.30600315 -.00000151  00000+0  00000+0 0  9990
2 33376   0.0498 264.9776 0003127  91.8237 178.3953  1.00271876 63859
ASTRA 1M                
1 33436U 08057A   26063.74254911  .00000110  00000+0  00000+0 0  9999
2 33436   0.0356  61.4724 0000873  11.6234  15.8987  1.00274143 44686
EUTELSAT HOTBIRD 13C    
1 33459U 08065A   26063.34350089 -.00000293  00000+0  00000+0 0  9995
2 33459   2.6811  80.4486 0003854 275.2309 239.7378  1.00269044 46298
EXPRESS-AM44            
1 33595U 09007A   26063.15479435 -.00000100  00000+0  00000+0 0  9996
2 33595   3.1937  79.6948 0004316 257.4284 229.4970  1.00271886 51236
NSS-9                   
1 33749U 09008A   26063.61780826  .00000061  00000+0  00000+0 0  9993
2 33749   0.9913  83.7021 0002160 254.7826 229.3478  1.00273151 62478
TELSTAR 11N             
1 34111U 09009A   26063.33794595 -.00000263  00000+0  00000+0 0  9990
2 34111   0.0202 137.5392 0002341 194.5952 274.0492  1.00271929 45199
WGS F2 (USA 204)        
1 34713U 09017A   26063.60782949  .00000000  00000+0  00000+0 0  9995
2 34713   0.0250 141.8078 0000528 231.7537  65.1282  1.00270134 44560
SES-7 (PROTOSTAR 2)     
1 34941U 09027A   26063.81375032 -.00000355  00000+0  00000+0 0  9997
2 34941   0.0203 102.4040 0001530 202.6705 258.6817  1.00271449 61585
MEASAT-3A               
1 35362U 09032A   26063.68655911 -.00000121  00000+0  00000+0 0  9994
2 35362   0.0408 353.5122 0003546 357.7342 218.3327  1.00271717  6988
GOES 14                 
1 35491U 09033A   26063.54628102  .00000118  00000+0  00000+0 0  9990
2 35491   1.4193  84.4200 0002261 298.8338 177.4573  1.00124457  5544
FM-5                    
1 35493U 09034A   26063.64660368 -.00000211  00000+0  00000+0 0  9999
2 35493   0.0390 273.6720 0000842 315.9649  79.3535  1.00270141 45597
TERRESTAR-1             
1 35496U 09035A   26063.48864072 -.00000065  00000+0  00000+0 0  9990
2 35496   5.0953  48.8345 0002934 301.3248 236.9811  1.00272115 61086
ASIASAT 5               
1 35696U 09042A   26063.91122362 -.00000317  00000+0  00000+0 0  9997
2 35696   0.0244 232.4493 0001473  99.5680 259.1905  1.00271426 60662
JCSAT-12 (JCSAT-RA)     
1 35755U 09044A   26063.73100142 -.00000338  00000+0  00000+0 0  9990
2 35755   0.0194 115.3500 0001907 188.1111 254.2033  1.00270761 60564
OPTUS D3                
1 35756U 09044B   26063.51086571 -.00000158  00000+0  00000+0 0  9996
2 35756   0.8824 269.6032 0003007  67.9537 164.7054  1.00272076 60519
NIMIQ 5                 
1 35873U 09050A   26063.25322573 -.00000269  00000+0  00000+0 0  9992
2 35873   0.0535 271.2017 0002641  72.4525 196.7895  1.00273376 60290
AMAZONAS 2              
1 35942U 09054A   26063.15044815 -.00000295  00000+0  00000+0 0  9991
2 35942   1.5427  84.4755 0003478 258.9264 171.8575  1.00272824 60135
